NORAD_CAT_ID,OBJECT_NAME,OBJECT_TYPE,EPOCH,MEAN_MOTION,ECCENTRICITY,INCLINATION,RA_OF_ASC_NODE,ARG_OF_PERICENTER,MEAN_ANOMALY,BSTAR,MEAN_MOTION_DOT,MEAN_MOTION_DDOT,TLE_LINE0,TLE_LINE1,TLE_LINE2,SEMIMAJOR_AXIS,PERIOD,APOGEE,PERIGEE,DECAYED
53538.0,STARLINK-4118,PAYLOAD,2022-10-29 12:00:00,15.08822658,0.0001334,53.2126,173.1895,80.1529,44.769,0.0036826,0.00058782,0.0,0 STARLINK-4118,1 53538U 22101M   22302.50001157  .00058782  00000-0  36826-2 0  9995,2 53538  53.2126 173.1895 0001334  80.1529  44.7690 15.08822658  1304,6917.933000000001,95.439,540.721,538.876,0.0
53538.0,STARLINK-4118,PAYLOAD,2022-10-29 22:00:01,15.0883875,0.0001529,53.2133,171.3204,74.4373,155.0548,7.289e-05,8.72e-06,0.0,0 STARLINK-4118,1 53538U 22101M   22302.91668981  .00000872  00000-0  72890-4 0  9994,2 53538  53.2133 171.3204 0001529  74.4373 155.0548 15.08838750  1303,6917.884,95.438,540.807,538.691,0.0
53538.0,STARLINK-4118,PAYLOAD,2022-10-30 00:00:00,15.08827893,0.0001549,53.2134,170.9466,73.6466,248.6841,0.0018059,0.0002856,0.0,0 STARLINK-4118,1 53538U 22101M   22303.00001157  .00028560  00000-0  18059-2 0  9990,2 53538  53.2134 170.9466 0001549  73.6466 248.6841 15.08827893 11116,6917.917,95.438,540.854,538.711,0.0
53538.0,STARLINK-4118,PAYLOAD,2022-10-30 14:00:01,15.08818656,0.0001351,53.2131,168.3258,83.6022,169.0058,0.0012848,0.00020207,0.0,0 STARLINK-4118,1 53538U 22101M   22303.58334491  .00020207  00000-0  12848-2 0  9993,2 53538  53.2131 168.3258 0001351  83.6022 169.0058 15.08818656  1306,6917.946,95.439,540.745,538.876,0.0
53538.0,STARLINK-4118,PAYLOAD,2022-10-30 22:00:01,15.08814552,0.000137,53.2131,166.8311,73.734,190.5211,-0.00056586,-9.276e-05,0.0,0 STARLINK-4118,1 53538U 22101M   22303.91668981 -.00009276  00000-0 -56586-3 0  9997,2 53538  53.2131 166.8311 0001370  73.7340 190.5211 15.08814552  1304,6917.958000000001,95.439,540.771,538.875,0.0
53538.0,STARLINK-4118,PAYLOAD,2022-10-31 14:00:01,15.08813493,0.0001296999999999,53.213,163.8366,82.9894,204.3338,0.0024593,0.0003904,0.0,0 STARLINK-4118,1 53538U 22101M   22304.58334491  .00039040  00000-0  24593-2 0  9999,2 53538  53.2130 163.8366 0001297  82.9894 204.3338 15.08813493  1301,6917.9609999999975,95.439,540.724,538.929,0.0
53538.0,STARLINK-4118,PAYLOAD,2022-10-31 22:00:01,15.08830127,0.0001384,53.2131,162.342,72.9799,225.9883,0.00061516,9.513e-05,0.0,0 STARLINK-4118,1 53538U 22101M   22304.91668981  .00009513  00000-0  61516-3 0  9999,2 53538  53.2131 162.3420 0001384  72.9799 225.9883 15.08830127 11406,6917.911,95.438,540.7330000000002,538.818,0.0
53538.0,STARLINK-4118,PAYLOAD,2022-11-01 14:00:01,15.08851125,0.0001402,53.2132,159.3473,81.8226,240.2777,-0.00054778,-8.998e-05,0.0,0 STARLINK-4118,1 53538U 22101M   22305.58334491 -.00008998  00000-0 -54778-3 0  9999,2 53538  53.2132 159.3473 0001402  81.8226 240.2777 15.08851125  1307,6917.846,95.437,540.681,538.742,0.0
53538.0,STARLINK-4118,PAYLOAD,2022-11-01 22:00:00,15.08829431,0.0001538,53.2133,157.8527,72.743,260.9634,0.00055611,8.571e-05,0.0,0 STARLINK-4118,1 53538U 22101M   22305.91667824  .00008571  00000-0  55611-3 0  9997,2 53538  53.2133 157.8527 0001538  72.7430 260.9634 15.08829431  1303,6917.913000000001,95.438,540.842,538.714,0.0
53538.0,STARLINK-4118,PAYLOAD,2022-11-02 06:00:00,15.08860128,0.0001404,53.2133,156.3553,72.4378,272.8518,-0.004287,-0.0006791,0.0,0 STARLINK-4118,1 53538U 22101M   22306.25001157 -.00067910  00000-0 -42870-2 0  9992,2 53538  53.2133 156.3553 0001404  72.4378 272.8518 15.08860128 11601,6917.819,95.436,540.655,538.7130000000002,0.0
53538.0,STARLINK-4118,PAYLOAD,2022-11-02 14:00:01,15.08817845,0.0001372,53.214,154.8566,80.7441,276.1361,0.0019189,0.00030365,0.0,0 STARLINK-4118,1 53538U 22101M   22306.58334491  .00030365  00000-0  19189-2 0  9997,2 53538  53.2140 154.8566 0001372  80.7441 276.1361 15.08817845  1300,6917.948,95.439,540.762,538.864,0.0
53538.0,STARLINK-4118,PAYLOAD,2022-11-02 20:00:01,15.08834048,0.0001465999999999,53.2135,153.7371,71.7682,203.8603,-0.00049456,-8.149e-05,0.0,0 STARLINK-4118,1 53538U 22101M   22306.83335648 -.00008149  00000-0 -49456-3 0  9998,2 53538  53.2135 153.7371 0001466  71.7682 203.8603 15.08834048 11689,6917.899,95.438,540.778,538.749,0.0
53538.0,STARLINK-4118,PAYLOAD,2022-11-03 01:08:34,15.08837662,0.0001391,53.2147,152.7744,77.3453,282.7694,7.9014e-05,9.7e-06,0.0,0 STARLINK-4118,1 53538U 22101M   22307.04762410  .00000970  00000-0  79014-4 0  9999,2 53538  53.2147 152.7744 0001391  77.3453 282.7694 15.08837662 12413,6917.888000000001,95.438,540.715,538.79,0.0
53538.0,STARLINK-4118,PAYLOAD,2022-11-03 18:37:48,15.08853958,0.0001444,53.2147,149.5032,80.4979,279.6177,0.00010081,1.317e-05,0.0,0 STARLINK-4118,1 53538U 22101M   22307.77625131  .00001317  00000-0  10081-3 0  9991,2 53538  53.2147 149.5032 0001444  80.4979 279.6177 15.08853958 11836,6917.8380000000025,95.437,540.702,538.7040000000002,0.0
53538.0,STARLINK-4118,PAYLOAD,2022-11-03 20:13:11,15.08854907,0.000161,53.214,149.2061,78.1979,281.9194,0.00014848,2.077e-05,0.0,0 STARLINK-4118,1 53538U 22101M   22307.84249308  .00002077  00000-0  14848-3 0  9996,2 53538  53.2140 149.2061 0001610  78.1979 281.9194 15.08854907 12535,6917.835,95.437,540.814,538.586,0.0
53538.0,STARLINK-4118,PAYLOAD,2022-11-03 23:23:58,15.08833252,0.0001726,53.214,148.6113,78.4935,281.6251,0.0010081,0.00015789,0.0,0 STARLINK-4118,1 53538U 22101M   22307.97498681  .00015789  00000-0  10081-2 0  9998,2 53538  53.2140 148.6113 0001726  78.4935 281.6251 15.08833252 11865,6917.901,95.438,540.96,538.572,0.0
53538.0,STARLINK-4118,PAYLOAD,2022-11-04 20:03:58,15.08841685,0.0001395,53.2139,144.7446,73.9688,286.1457,3.4116e-05,2.55e-06,0.0,0 STARLINK-4118,1 53538U 22101M   22308.83609511  .00000255  00000-0  34116-4 0  9999,2 53538  53.2139 144.7446 0001395  73.9688 286.1457 15.08841685 12684,6917.875,95.437,540.705,538.775,0.0
53538.0,STARLINK-4118,PAYLOAD,2022-11-05 00:50:08,15.08839846,0.0001398,53.2149,143.8519,71.3162,288.7982,5.308600000000001e-05,5.57e-06,0.0,0 STARLINK-4118,1 53538U 22101M   22309.03481632  .00000557  00000-0  53086-4 0  9996,2 53538  53.2149 143.8519 0001398  71.3162 288.7982 15.08839846 12023,6917.880999999999,95.438,540.7130000000002,538.779,0.0
53538.0,STARLINK-4118,PAYLOAD,2022-11-05 13:33:13,15.08836966,0.0001439,53.2131,141.4739,75.8823,284.2329,-7.6321e-05,-1.502e-05,0.0,0 STARLINK-4118,1 53538U 22101M   22309.56473653 -.00001502  00000-0 -76321-4 0  9998,2 53538  53.2131 141.4739 0001439  75.8823 284.2329 15.08836966 12791,6917.89,95.438,540.75,538.759,0.0
53538.0,STARLINK-4118,PAYLOAD,2022-11-05 19:54:46,15.0883299,0.0001419,53.2138,140.2842,67.0797,293.0345,-0.00016052,-2.841e-05,0.0,0 STARLINK-4118,1 53538U 22101M   22309.82969909 -.00002841  00000-0 -16052-3 0  9992,2 53538  53.2138 140.2842 0001419  67.0797 293.0345 15.08832990 12835,6917.901999999999,95.438,540.748,538.785,0.0
53538.0,STARLINK-4118,PAYLOAD,2022-11-06 00:40:55,15.08836595,0.00014,53.2148,139.3919,74.6143,285.5003,-9.295e-05,-1.767e-05,0.0,0 STARLINK-4118,1 53538U 22101M   22310.02842367 -.00001767  00000-0 -92950-4 0  9992,2 53538  53.2148 139.3919 0001400  74.6143 285.5003 15.08836595 12178,6917.891,95.438,540.724,538.7869999999998,0.0
53538.0,STARLINK-4118,PAYLOAD,2022-11-06 11:48:37,15.08834953,0.0001322,53.2148,137.3102,77.5884,282.5256,-1.4392e-05,-5.17e-06,0.0,0 STARLINK-4118,1 53538U 22101M   22310.49210372 -.00000517  00000-0 -14392-4 0  9994,2 53538  53.2148 137.3102 0001322  77.5884 282.5256 15.08834953 12934,6917.896,95.438,540.675,538.846,0.0
53538.0,STARLINK-4118,PAYLOAD,2022-11-07 05:17:52,15.08838099,0.000133,53.2149,134.0391,73.3002,286.8136,7.8402e-05,9.6e-06,0.0,0 STARLINK-4118,1 53538U 22101M   22311.22074159  .00000960  00000-0  78402-4 0  9999,2 53538  53.2149 134.0391 0001330  73.3002 286.8136 15.08838099 12359,6917.886,95.438,540.6709999999998,538.831,0.0
53538.0,STARLINK-4118,PAYLOAD,2022-11-07 14:50:10,15.08837692,0.0001293,53.2149,132.2546,74.1395,285.9739,0.00016839,2.393e-05,0.0,0 STARLINK-4118,1 53538U 22101M   22311.61818043  .00002393  00000-0  16839-3 0  9997,2 53538  53.2149 132.2546 0001293  74.1395 285.9739 15.08837692 13104,6917.887,95.438,540.6469999999998,538.8580000000002,0.0
53538.0,STARLINK-4118,PAYLOAD,2022-11-08 05:08:38,15.088471599999998,0.0001346,53.215,129.5783,71.49,288.6239,0.00020978,3.053e-05,0.0,0 STARLINK-4118,1 53538U 22101M   22312.21433247  .00003053  00000-0  20978-3 0  9996,2 53538  53.2150 129.5783 0001346  71.4900 288.6239 15.08847160 12508,6917.859,95.437,540.655,538.7919999999998,0.0
53538.0,STARLINK-4118,PAYLOAD,2022-11-08 17:51:43,15.08846317,0.0001339,53.215,127.199,71.2187,288.8951,0.00011904,1.607e-05,0.0,0 STARLINK-4118,1 53538U 22101M   22312.74425572  .00001607  00000-0  11904-3 0  9998,2 53538  53.2150 127.1990 0001339  71.2187 288.8951 15.08846317 12583,6917.861,95.437,540.6519999999998,538.8,0.0
53538.0,STARLINK-4118,PAYLOAD,2022-11-08 21:02:29,15.08847571,0.0001463,53.2152,126.6048,72.6739,287.4414,0.0001322,1.817e-05,0.0,0 STARLINK-4118,1 53538U 22101M   22312.87673417  .00001817  00000-0  13220-3 0  9991,2 53538  53.2152 126.6048 0001463  72.6739 287.4414 15.08847571 13290,6917.857,95.437,540.734,538.71,0.0
53538.0,STARLINK-4118,PAYLOAD,2022-11-09 11:20:57,15.08847507,0.0001592,53.2143,123.9282,73.7629,286.3539,9.0899e-05,1.159e-05,0.0,0 STARLINK-4118,1 53538U 22101M   22313.47289279  .00001159  00000-0  90899-4 0  9994,2 53538  53.2143 123.9282 0001592  73.7629 286.3539 15.08847507 13388,6917.857,95.437,540.8240000000002,538.621,0.0
53538.0,STARLINK-4118,PAYLOAD,2022-11-09 17:42:31,15.08831955,0.0001574,53.2139,122.7386,73.9191,286.1974,-0.00010396,-1.942e-05,0.0,0 STARLINK-4118,1 53538U 22101M   22313.73786687 -.00001942  00000-0 -10396-3 0  9993,2 53538  53.2139 122.7386 0001574  73.9191 286.1974 15.08831955 12730,6917.905,95.438,540.859,538.681,0.0
